STARLINK-11152 [DTC]    
1 60194U 24124M   26054.74606359 -.00000926  00000+0 -27920-5 0  9993
2 60194  53.1598 230.0201 0001076  98.9517 261.1622 15.69688933 95534
STARLINK-11193 [DTC]    
1 60195U 24124N   26054.48646372 -.00001194  00000+0 -49960-5 0  9990
2 60195  53.1568 231.2431 0000942  89.1879 270.9247 15.69718286 94304
STARLINK-31869          
1 60196U 24124P   26054.62564178 -.00000959  00000+0 -20265-4 0  9994
2 60196  53.1625  27.7359 0001495  87.4771 272.6401 15.30189903 92149
STARLINK-32023          
1 60197U 24124Q   26054.33388596 -.00000548  00000+0 -63725-5 0  9994
2 60197  53.1617  29.4684 0001203  77.6168 282.4968 15.30194696 92095
STARLINK-32046          
1 60198U 24124R   26054.63724889 -.00000722  00000+0 -12266-4 0  9994
2 60198  53.1620  27.8064 0001131  98.8241 261.2888 15.30179421 93378
STARLINK-32049          
1 60199U 24124S   26054.65096504 -.00000725  00000+0 -12378-4 0  9990
2 60199  53.1607  27.8911 0001073  77.2894 282.8227 15.30190771 93372
STARLINK-32002          
1 60200U 24124T   26054.24641753 -.00000840  00000+0 -16238-4 0  9997
2 60200  53.1612  29.6333 0001159  90.2388 269.8746 15.30181743 92084
STARLINK-32020          
1 60201U 24124U   26054.34960103  .00000182  00000+0  18268-4 0  9994
2 60201  53.1617  28.8521 0001284  85.2301 274.8846 15.30197702 92100
STARLINK-32041          
1 60202U 24124V   26054.63514967 -.00000624  00000+0 -89550-5 0  9996
2 60202  53.1617  27.7929 0001525 107.7909 252.3258 15.30185232 93343
STARLINK-32138          
1 60255U 24131A   26054.43048783 -.00000693  00000+0 -11274-4 0  9991
2 60255  53.1606 118.7938 0001643 121.6641 238.4520 15.30210237 89839
STARLINK-32212          
1 60256U 24131B   26054.44317222 -.00000119  00000+0  81209-5 0  9998
2 60256  53.1599 118.8835 0001402  90.0579 270.0582 15.30187174 89530
STARLINK-32166          
1 60257U 24131C   26054.58014023 -.00001234  00000+0 -29574-4 0  9993
2 60257  53.1589 118.3049 0001323  82.9432 277.1719 15.30183382 89551
STARLINK-32200          
1 60258U 24131D   26054.44105911  .00013398  00000+0  46359-3 0  9997
2 60258  53.1588 118.8608 0001493  96.5515 263.5656 15.30204459 89534
STARLINK-32207          
1 60259U 24131E   26054.43895561 -.00000886  00000+0 -17790-4 0  9992
2 60259  53.1599 118.8585 0002096 104.5412 255.5822 15.30189654 89532
STARLINK-32125          
1 60260U 24131F   26054.32298804  .00001252  00000+0  54383-4 0  9994
2 60260  53.1601 118.8384 0001172  69.7195 290.3932 15.30199001 89524
STARLINK-32160          
1 60261U 24131G   26054.44422653 -.00000602  00000+0 -82190-5 0  9997
2 60261  53.1591 118.8753 0001255  73.8749 286.2390 15.30191584 89582
