[{"OBJECT_NAME":"STARLINK-11152 [DTC]","OBJECT_ID":"2024-124M","EPOCH":"2026-02-23T17:54:19.894176","MEAN_MOTION":15.69688933,"ECCENTRICITY":0.0001076,"INCLINATION":53.1598,"RA_OF_ASC_NODE":230.0201,"ARG_OF_PERICENTER":98.9517,"MEAN_ANOMALY":261.1622,"EPHEMERIS_TYPE":0,"CLASSIFICATION_TYPE":"U","NORAD_CAT_ID":60194,"ELEMENT_SET_NO":999,"REV_AT_EPOCH":9553,"BSTAR":-2.792e-6,"MEAN_MOTION_DOT":-9.26e-6,"MEAN_MOTION_DDOT":0},{"OBJECT_NAME":"STARLINK-11193 [DTC]","OBJECT_ID":"2024-124N","EPOCH":"2026-02-23T11:40:30.465408","MEAN_MOTION":15.69718286,"ECCENTRICITY":9.425e-5,"INCLINATION":53.1568,"RA_OF_ASC_NODE":231.2431,"ARG_OF_PERICENTER":89.1879,"MEAN_ANOMALY":270.9247,"EPHEMERIS_TYPE":0,"CLASSIFICATION_TYPE":"U","NORAD_CAT_ID":60195,"ELEMENT_SET_NO":999,"REV_AT_EPOCH":9430,"BSTAR":-4.996011e-6,"MEAN_MOTION_DOT":-1.194e-5,"MEAN_MOTION_DDOT":0},{"OBJECT_NAME":"STARLINK-31869","OBJECT_ID":"2024-124P","EPOCH":"2026-02-23T15:00:55.449792","MEAN_MOTION":15.30189903,"ECCENTRICITY":0.0001495,"INCLINATION":53.1625,"RA_OF_ASC_NODE":27.7359,"ARG_OF_PERICENTER":87.4771,"MEAN_ANOMALY":272.6401,"EPHEMERIS_TYPE":0,"CLASSIFICATION_TYPE":"U","NORAD_CAT_ID":60196,"ELEMENT_SET_NO":999,"REV_AT_EPOCH":9214,"BSTAR":-2.0265e-5,"MEAN_MOTION_DOT":-9.59e-6,"MEAN_MOTION_DDOT":0},{"OBJECT_NAME":"STARLINK-32023","OBJECT_ID":"2024-124Q","EPOCH":"2026-02-23T08:00:47.746944","MEAN_MOTION":15.30194696,"ECCENTRICITY":0.00012038,"INCLINATION":53.1617,"RA_OF_ASC_NODE":29.4684,"ARG_OF_PERICENTER":77.6168,"MEAN_ANOMALY":282.4968,"EPHEMERIS_TYPE":0,"CLASSIFICATION_TYPE":"U","NORAD_CAT_ID":60197,"ELEMENT_SET_NO":999,"REV_AT_EPOCH":9209,"BSTAR":-6.372537e-6,"MEAN_MOTION_DOT":-5.48e-6,"MEAN_MOTION_DDOT":0},{"OBJECT_NAME":"STARLINK-32046","OBJECT_ID":"2024-124R","EPOCH":"2026-02-23T15:17:38.304096","MEAN_MOTION":15.30179421,"ECCENTRICITY":0.0001131,"INCLINATION":53.162,"RA_OF_ASC_NODE":27.8064,"ARG_OF_PERICENTER":98.8241,"MEAN_ANOMALY":261.2888,"EPHEMERIS_TYPE":0,"CLASSIFICATION_TYPE":"U","NORAD_CAT_ID":60198,"ELEMENT_SET_NO":999,"REV_AT_EPOCH":9337,"BSTAR":-1.2266e-5,"MEAN_MOTION_DOT":-7.22e-6,"MEAN_MOTION_DDOT":0},{"OBJECT_NAME":"STARLINK-32049","OBJECT_ID":"2024-124S","EPOCH":"2026-02-23T15:37:23.379456","MEAN_MOTION":15.30190771,"ECCENTRICITY":0.0001073,"INCLINATION":53.1607,"RA_OF_ASC_NODE":27.8911,"ARG_OF_PERICENTER":77.2894,"MEAN_ANOMALY":282.8227,"EPHEMERIS_TYPE":0,"CLASSIFICATION_TYPE":"U","NORAD_CAT_ID":60199,"ELEMENT_SET_NO":999,"REV_AT_EPOCH":9337,"BSTAR":-1.2378e-5,"MEAN_MOTION_DOT":-7.25e-6,"MEAN_MOTION_DDOT":0},{"OBJECT_NAME":"STARLINK-32002","OBJECT_ID":"2024-124T","EPOCH":"2026-02-23T05:54:50.474592","MEAN_MOTION":15.30181743,"ECCENTRICITY":0.0001159,"INCLINATION":53.1612,"RA_OF_ASC_NODE":29.6333,"ARG_OF_PERICENTER":90.2388,"MEAN_ANOMALY":269.8746,"EPHEMERIS_TYPE":0,"CLASSIFICATION_TYPE":"U","NORAD_CAT_ID":60200,"ELEMENT_SET_NO":999,"REV_AT_EPOCH":9208,"BSTAR":-1.6237744e-5,"MEAN_MOTION_DOT":-8.4e-6,"MEAN_MOTION_DDOT":0},{"OBJECT_NAME":"STARLINK-32020","OBJECT_ID":"2024-124U","EPOCH":"2026-02-23T08:23:25.528992","MEAN_MOTION":15.30197702,"ECCENTRICITY":0.00012849,"INCLINATION":53.1617,"RA_OF_ASC_NODE":28.8521,"ARG_OF_PERICENTER":85.2301,"MEAN_ANOMALY":274.8846,"EPHEMERIS_TYPE":0,"CLASSIFICATION_TYPE":"U","NORAD_CAT_ID":60201,"ELEMENT_SET_NO":999,"REV_AT_EPOCH":9210,"BSTAR":1.8268083e-5,"MEAN_MOTION_DOT":1.82e-6,"MEAN_MOTION_DDOT":0},{"OBJECT_NAME":"STARLINK-32041","OBJECT_ID":"2024-124V","EPOCH":"2026-02-23T15:14:36.931488","MEAN_MOTION":15.30185232,"ECCENTRICITY":0.0001525,"INCLINATION":53.1617,"RA_OF_ASC_NODE":27.7929,"ARG_OF_PERICENTER":107.7909,"MEAN_ANOMALY":252.3258,"EPHEMERIS_TYPE":0,"CLASSIFICATION_TYPE":"U","NORAD_CAT_ID":60202,"ELEMENT_SET_NO":999,"REV_AT_EPOCH":9334,"BSTAR":-8.955e-6,"MEAN_MOTION_DOT":-6.24e-6,"MEAN_MOTION_DDOT":0},{"OBJECT_NAME":"STARLINK-32138","OBJECT_ID":"2024-131A","EPOCH":"2026-02-23T10:19:54.148512","MEAN_MOTION":15.30210237,"ECCENTRICITY":0.00016431,"INCLINATION":53.1606,"RA_OF_ASC_NODE":118.7938,"ARG_OF_PERICENTER":121.6641,"MEAN_ANOMALY":238.452,"EPHEMERIS_TYPE":0,"CLASSIFICATION_TYPE":"U","NORAD_CAT_ID":60255,"ELEMENT_SET_NO":999,"REV_AT_EPOCH":8983,"BSTAR":-1.1273559e-5,"MEAN_MOTION_DOT":-6.93e-6,"MEAN_MOTION_DDOT":0},{"OBJECT_NAME":"STARLINK-32212","OBJECT_ID":"2024-131B","EPOCH":"2026-02-23T10:38:10.079808","MEAN_MOTION":15.30187174,"ECCENTRICITY":0.00014023,"INCLINATION":53.1599,"RA_OF_ASC_NODE":118.8835,"ARG_OF_PERICENTER":90.0579,"MEAN_ANOMALY":270.0582,"EPHEMERIS_TYPE":0,"CLASSIFICATION_TYPE":"U","NORAD_CAT_ID":60256,"ELEMENT_SET_NO":999,"REV_AT_EPOCH":8953,"BSTAR":8.120921e-6,"MEAN_MOTION_DOT":-1.19e-6,"MEAN_MOTION_DDOT":0},{"OBJECT_NAME":"STARLINK-32166","OBJECT_ID":"2024-131C","EPOCH":"2026-02-23T13:55:24.115872","MEAN_MOTION":15.30183382,"ECCENTRICITY":0.0001323,"INCLINATION":53.1589,"RA_OF_ASC_NODE":118.3049,"ARG_OF_PERICENTER":82.9432,"MEAN_ANOMALY":277.1719,"EPHEMERIS_TYPE":0,"CLASSIFICATION_TYPE":"U","NORAD_CAT_ID":60257,"ELEMENT_SET_NO":999,"REV_AT_EPOCH":8955,"BSTAR":-2.9574e-5,"MEAN_MOTION_DOT":-1.234e-5,"MEAN_MOTION_DDOT":0},{"OBJECT_NAME":"STARLINK-32200","OBJECT_ID":"2024-131D","EPOCH":"2026-02-23T10:35:07.507104","MEAN_MOTION":15.30204459,"ECCENTRICITY":0.00014939,"INCLINATION":53.1588,"RA_OF_ASC_NODE":118.8608,"ARG_OF_PERICENTER":96.5515,"MEAN_ANOMALY":263.5656,"EPHEMERIS_TYPE":0,"CLASSIFICATION_TYPE":"U","NORAD_CAT_ID":60258,"ELEMENT_SET_NO":999,"REV_AT_EPOCH":8953,"BSTAR":0.00046358709,"MEAN_MOTION_DOT":0.00013398,"MEAN_MOTION_DDOT":0},{"OBJECT_NAME":"STARLINK-32207","OBJECT_ID":"2024-131E","EPOCH":"2026-02-23T10:32:05.764704","MEAN_MOTION":15.30189654,"ECCENTRICITY":0.00020967,"INCLINATION":53.1599,"RA_OF_ASC_NODE":118.8585,"ARG_OF_PERICENTER":104.5412,"MEAN_ANOMALY":255.5822,"EPHEMERIS_TYPE":0,"CLASSIFICATION_TYPE":"U","NORAD_CAT_ID":60259,"ELEMENT_SET_NO":999,"REV_AT_EPOCH":8953,"BSTAR":-1.7789553e-5,"MEAN_MOTION_DOT":-8.86e-6,"MEAN_MOTION_DDOT":0},{"OBJECT_NAME":"STARLINK-32125","OBJECT_ID":"2024-131F","EPOCH":"2026-02-23T07:45:06.166656","MEAN_MOTION":15.30199001,"ECCENTRICITY":0.00011722,"INCLINATION":53.1601,"RA_OF_ASC_NODE":118.8384,"ARG_OF_PERICENTER":69.7195,"MEAN_ANOMALY":290.3932,"EPHEMERIS_TYPE":0,"CLASSIFICATION_TYPE":"U","NORAD_CAT_ID":60260,"ELEMENT_SET_NO":999,"REV_AT_EPOCH":8952,"BSTAR":5.4383092e-5,"MEAN_MOTION_DOT":1.252e-5,"MEAN_MOTION_DDOT":0},{"OBJECT_NAME":"STARLINK-32160","OBJECT_ID":"2024-131G","EPOCH":"2026-02-23T10:39:41.172192","MEAN_MOTION":15.30191584,"ECCENTRICITY":0.00012555,"INCLINATION":53.1591,"RA_OF_ASC_NODE":118.8753,"ARG_OF_PERICENTER":73.8749,"MEAN_ANOMALY":286.239,"EPHEMERIS_TYPE":0,"CLASSIFICATION_TYPE":"U","NORAD_CAT_ID":60261,"ELEMENT_SET_NO":999,"REV_AT_EPOCH":8958,"BSTAR":-8.218969e-6,"MEAN_MOTION_DOT":-6.02e-6,"MEAN_MOTION_DDOT":0}]
